{
"type": "FeatureCollection",
"name": "country-borders",
"crs": { "type": "name", "properties": { "name": "urn:ogc:def:crs:OGC:1.3:CRS84" } },
"features": [
{ "type": "Feature", "properties": { }, "geometry": { "type": "MultiLineString", "coordinates": [ [ [ 6.391681763000122, 49.466697490000016 ], [ 6.402740519000133, 49.465457255000089 ], [ 6.494517863000056, 49.435536601000038 ], [ 6.511674438000114, 49.424736226 ], [ 6.517875610000118, 49.416416321000057 ], [ 6.520562785000038, 49.408148092000019 ], [ 6.520769491000095, 49.4025670380001 ], [ 6.518805786000058, 49.402153626000072 ], [ 6.525730428000145, 49.395487366000069 ], [ 6.574306274000037, 49.361794332000031 ], [ 6.577716919000068, 49.355799866000083 ], [ 6.573376098000097, 49.347738343000103 ], [ 6.555599406000056, 49.347169902000033 ], [ 6.550121704000077, 49.338023173000053 ], [ 6.556426228000078, 49.326395976000086 ], [ 6.573169393000029, 49.313115133000096 ], [ 6.639676961000106, 49.27115387 ], [ 6.641227254000114, 49.266916403000025 ], [ 6.639160196000148, 49.256787822 ], [ 6.640297078000089, 49.252757060000093 ], [ 6.645671427000138, 49.250018209000032 ], [ 6.659520711000084, 49.24676259400006 ], [ 6.663758179000041, 49.243868713000083 ], [ 6.671612996000079, 49.225316875000047 ], [ 6.674816935000138, 49.221131084 ], [ 6.675953817000078, 49.218908997000099 ], [ 6.677917521000097, 49.211054180000062 ], [ 6.680604696000046, 49.207488505000086 ] ], [ [ 6.353854614000056, 49.454760234000062 ], [ 6.364499959000057, 49.456103821000042 ], [ 6.383516886000109, 49.46463043200005 ], [ 6.391681763000122, 49.466697490000016 ] ], [ [ 6.702515503000086, 49.213638001000064 ], [ 6.708820027000087, 49.197773336000054 ], [ 6.703755737000108, 49.185112610000019 ], [ 6.700965210000049, 49.172865296000069 ], [ 6.713780965000126, 49.158860982000064 ], [ 6.725563192000038, 49.155553691000065 ], [ 6.770108276000144, 49.15529530900001 ], [ 6.809072306000132, 49.145838522000034 ] ], [ [ 6.680604696000046, 49.207488505000086 ], [ 6.685048868000138, 49.207798564000072 ], [ 6.698484741000073, 49.213586324000048 ], [ 6.702515503000086, 49.213638001000064 ] ], [ [ 6.843488810000082, 49.211054180000062 ], [ 6.885243367000044, 49.20480133100007 ] ], [ [ 6.809072306000132, 49.145838522000034 ], [ 6.821784709000099, 49.147750550000055 ], [ 6.839044637000086, 49.162788392000053 ], [ 6.835220581000044, 49.179376526000041 ], [ 6.827675822000089, 49.195551250000037 ], [ 6.833463583000054, 49.209452210000038 ], [ 6.843488810000082, 49.211054180000062 ] ], [ [ 6.914388876000146, 49.206661683000064 ], [ 6.925447632000044, 49.205576477000065 ], [ 6.987872762000109, 49.182425436000088 ], [ 7.0, 49.182019260019366 ] ], [ [ 6.885243367000044, 49.20480133100007 ], [ 6.914388876000146, 49.206661683000064 ] ] ] } },
{ "type": "Feature", "properties": { }, "geometry": { "type": "LineString", "coordinates": [ [ 6.353854614000056, 49.454760234000062 ], [ 6.345307071000093, 49.455348652000097 ] ] } },
{ "type": "Feature", "properties": { }, "geometry": { "type": "MultiLineString", "coordinates": [ [ [ 5.960700317000118, 49.441324362000032 ], [ 5.946954386000101, 49.469953105000101 ], [ 5.928144165000077, 49.482303772000066 ], [ 5.864685506000029, 49.492173971000042 ], [ 5.8395707600001, 49.499873760000028 ], [ 5.822104126000056, 49.510519105000029 ], [ 5.790684855000023, 49.537752585000121 ] ], [ [ 6.345307071000093, 49.455348652000097 ], [ 6.325329224000086, 49.456723938000025 ], [ 6.298767538000078, 49.466232402000074 ], [ 6.251116525000043, 49.489459778000096 ], [ 6.249364868000072, 49.490313619000048 ], [ 6.221976359000109, 49.497444967000078 ], [ 6.193554321000079, 49.499408672000087 ] ], [ [ 6.193554321000079, 49.499408672000087 ], [ 6.136090129000081, 49.495274556000069 ], [ 6.142601359000139, 49.486076152000081 ], [ 6.11438602700008, 49.484370830000032 ], [ 6.10725467900005, 49.482510478 ], [ 6.1019836830001, 49.476412659000047 ], [ 6.102087036000057, 49.470004781000014 ], [ 6.099813273000109, 49.46463043200005 ], [ 6.087720988000029, 49.461633199000048 ], [ 6.078005819000083, 49.45202138300003 ], [ 6.063329711000108, 49.448455710000061 ], [ 5.978063599000052, 49.445096741000057 ], [ 5.960700317000118, 49.441324362000032 ] ] ] } },
{ "type": "Feature", "properties": { }, "geometry": { "type": "MultiLineString", "coordinates": [ [ [ 6.101156861000078, 50.063405254000045 ], [ 6.099399861000109, 50.064128723000053 ], [ 6.105704386000127, 50.092240702000069 ], [ 6.110561971000038, 50.105986634000018 ], [ 6.11748661300004, 50.120456035000061 ] ], [ [ 6.161928345000092, 49.942482402000095 ], [ 6.153970174000051, 49.951215719000075 ], [ 6.138777303000097, 49.979327698000091 ], [ 6.12151737500011, 49.996277568000025 ], [ 6.117176554000139, 50.004390768000107 ], [ 6.119967081000084, 50.015501200000031 ], [ 6.113765910000012, 50.03637848000001 ], [ 6.10725467900005, 50.044595032000032 ], [ 6.096402629000096, 50.048625794000131 ], [ 6.105704386000127, 50.060304668000086 ], [ 6.10942509000003, 50.063560283000086 ], [ 6.107151327000111, 50.06376698800004 ] ], [ [ 6.107151327000111, 50.06376698800004 ], [ 6.101156861000078, 50.063405254000045 ] ], [ [ 6.310653116000111, 49.834478659000055 ], [ 6.30259159400012, 49.834943747000082 ], [ 6.301558065000052, 49.838302714000079 ], [ 6.295567892000093, 49.848615692000109 ], [ 6.291532837000119, 49.855562643000084 ], [ 6.286778605000109, 49.861040345000063 ], [ 6.27220585200007, 49.867138164000025 ], [ 6.238306111000043, 49.876905009000083 ], [ 6.222699829000106, 49.887136943000044 ], [ 6.18983361800008, 49.938296611000041 ], [ 6.172677043000107, 49.956228333000027 ] ], [ [ 6.172677043000107, 49.956228333000027 ], [ 6.161928345000092, 49.942482402000095 ] ], [ [ 6.414522746000046, 49.805488180000069 ], [ 6.397056111000097, 49.808588766000113 ], [ 6.380106242000068, 49.815565084000113 ], [ 6.351374145000079, 49.833290100000013 ], [ 6.33442427500006, 49.8402147420001 ], [ 6.325639282000083, 49.840369772000045 ] ], [ [ 6.325639282000083, 49.840369772000045 ], [ 6.310653116000111, 49.834478659000055 ] ], [ [ 6.502579387000139, 49.795669658000108 ], [ 6.4972050370001, 49.799442038000038 ], [ 6.493277629000119, 49.799597066000061 ], [ 6.462478475000069, 49.805488180000069 ] ], [ [ 6.462478475000069, 49.805488180000069 ], [ 6.414522746000046, 49.805488180000069 ] ], [ [ 6.502269327000079, 49.795876363000062 ], [ 6.502579387000139, 49.795669658000108 ] ], [ [ 6.499685506000077, 49.712212219000023 ], [ 6.492554158000132, 49.718413391000112 ], [ 6.487799926000122, 49.725596416000073 ], [ 6.485526163000117, 49.733761292000068 ], [ 6.486249634000018, 49.742701315000019 ], [ 6.495964803000049, 49.748230693000025 ], [ 6.49637821400006, 49.752106425000065 ], [ 6.493691040000044, 49.756550598000061 ], [ 6.493794392000069, 49.763630268999989 ], [ 6.498548624000051, 49.785386048000092 ], [ 6.499995564000045, 49.786057841000073 ], [ 6.500098918000077, 49.794481100000084 ], [ 6.502269327000079, 49.795876363000062 ] ], [ [ 6.49100386500001, 49.71443430600003 ], [ 6.499685506000077, 49.712212219000023 ] ], [ [ 6.345307071000093, 49.455348652000097 ], [ 6.345379679000132, 49.462718404000029 ], [ 6.342279094000105, 49.493000794000054 ], [ 6.348808550000058, 49.525289755000117 ], [ 6.350754028000097, 49.534910381000046 ], [ 6.350754028000097, 49.566588034000048 ], [ 6.356438435000143, 49.577595113000044 ], [ 6.371527954000044, 49.592994690000026 ], [ 6.397572876000112, 49.613871969000101 ], [ 6.407701457000087, 49.627411194000089 ], [ 6.415246216000128, 49.634645894000059 ], [ 6.417933390000144, 49.63914174500006 ], [ 6.417003215000108, 49.645756327000058 ], [ 6.410905396000146, 49.64963206000003 ], [ 6.404497518000113, 49.652474264 ], [ 6.402740519000133, 49.655781555 ], [ 6.418243449000045, 49.669889222000037 ], [ 6.49172733600011, 49.700791728000027 ], [ 6.489763631000073, 49.702962138000018 ], [ 6.482942342000115, 49.708078105000098 ], [ 6.486352986000043, 49.712935690000037 ], [ 6.49100386500001, 49.71443430600003 ] ] ] } },
{ "type": "Feature", "properties": { }, "geometry": { "type": "MultiLineString", "coordinates": [ [ [ 6.038628377000094, 50.148412985000036 ], [ 6.02736291500014, 50.149446513000029 ], [ 6.022966606000097, 50.150820360000111 ], [ 6.014133749000052, 50.153580628000057 ], [ 6.008035929000073, 50.160918681000041 ], [ 6.004728638000074, 50.170478821000032 ], [ 5.998320760000041, 50.174974671000072 ] ], [ [ 5.998320760000041, 50.174974671000072 ], [ 5.982921183000144, 50.167068177000019 ], [ 5.961630493000087, 50.165621236000035 ], [ 5.953155558000077, 50.156371155 ], [ 5.949021444000067, 50.142676900000069 ], [ 5.941063273000083, 50.12831085200007 ], [ 5.926180461000058, 50.118337301000068 ], [ 5.888973429000117, 50.106606751000086 ], [ 5.872436971000127, 50.096891581000037 ], [ 5.868819621000057, 50.090535381 ], [ 5.866855916000134, 50.074308981000016 ], [ 5.864375447000043, 50.067487691000068 ], [ 5.858277628000081, 50.061803284000106 ], [ 5.843704874000139, 50.053638408 ], [ 5.837710408000106, 50.047437236000107 ], [ 5.838847290000103, 50.035861715000053 ], [ 5.838847290000103, 50.026456604000018 ], [ 5.836366821000126, 50.018550110000049 ], [ 5.829132121000072, 50.013589173000113 ], [ 5.808874959000065, 50.007801412000035 ], [ 5.802673787000089, 50.002478740000086 ], [ 5.801536906000081, 49.988681133000043 ], [ 5.808564901000096, 49.983100078000021 ], [ 5.812595662000092, 49.977570700000015 ], [ 5.801640258000106, 49.963824768000094 ], [ 5.793372029000068, 49.958812155000018 ], [ 5.778592570000058, 49.956590067000022 ], [ 5.771564575000127, 49.953541158000078 ], [ 5.7637097570001, 49.946823222000077 ], [ 5.759989054000101, 49.94160390200004 ], [ 5.757611939000128, 49.936539612000061 ], [ 5.75358117600004, 49.930183411000044 ], [ 5.718957967000051, 49.891374410000097 ], [ 5.714927205000038, 49.881865946000019 ], [ 5.726709432000064, 49.878196920000036 ], [ 5.748826945000047, 49.867293193000066 ], [ 5.758128702000079, 49.858198141000074 ] ], [ [ 6.11748661300004, 50.120456035000061 ], [ 6.102603800000082, 50.124745179000016 ], [ 6.100330037000077, 50.132651673000069 ], [ 6.101466919000075, 50.142108460000131 ], [ 6.097126098000103, 50.151306865000024 ], [ 6.084206991000087, 50.159316712000091 ] ], [ [ 6.084206991000087, 50.159316712000091 ], [ 6.076455525000085, 50.158644918000036 ], [ 6.070047648000127, 50.154200745000097 ], [ 6.061366008000078, 50.150738424000068 ], [ 6.038628377000094, 50.148412985000036 ] ], [ [ 5.758128702000079, 49.858198141000074 ], [ 5.731877075000057, 49.859955139000064 ] ], [ [ 5.731877075000057, 49.859955139000064 ], [ 5.731980428000071, 49.85416738 ], [ 5.730533488000077, 49.851170146000086 ], [ 5.728673136000083, 49.848844707000055 ], [ 5.726916137000103, 49.84522735700007 ], [ 5.73652795400011, 49.839439596 ], [ 5.724642374000098, 49.834271953 ], [ 5.720198202000091, 49.824711813000093 ], [ 5.721645142000085, 49.812774557000054 ], [ 5.727742960000114, 49.800217184000033 ], [ 5.73828495300009, 49.788848368000046 ], [ 5.748413533000132, 49.785644430000062 ], [ 5.759162231000062, 49.784455872000066 ], [ 5.771874634000113, 49.779391582000088 ], [ 5.7784892170001, 49.773035380000053 ], [ 5.802053670000106, 49.74285634400006 ], [ 5.803603963000057, 49.738153789000066 ], [ 5.805774373000133, 49.724201152 ], [ 5.805360961000105, 49.721875713000045 ], [ 5.81176884000007, 49.718516745000031 ], [ 5.825721476000041, 49.715777894 ], [ 5.831715942000073, 49.713607483000018 ], [ 5.837296997000095, 49.712935690000037 ] ], [ [ 5.843704874000139, 49.714330954 ], [ 5.850216105000101, 49.714020894000029 ], [ 5.856003865000076, 49.708078105000098 ], [ 5.856402764000052, 49.70580745000008 ], [ 5.857347453000045, 49.700429993000014 ], [ 5.853626749000028, 49.6962958780001 ], [ 5.848769165000107, 49.692730205000046 ], [ 5.847218872000099, 49.687200827000126 ], [ 5.846702108000045, 49.68068959600005 ], [ 5.843704874000139, 49.677485657 ], [ 5.842257934000145, 49.673919983000118 ], [ 5.845771932000105, 49.666581930000021 ], [ 5.852593221000063, 49.66322296200012 ], [ 5.872643676000109, 49.661724345000025 ], [ 5.879878377000068, 49.657745260000027 ], [ 5.88545943200009, 49.643534241000069 ], [ 5.879878377000068, 49.63485260100002 ], [ 5.86995650200015, 49.628858135000073 ], [ 5.861998331000109, 49.622760316000026 ], [ 5.849182577000107, 49.599712626000056 ], [ 5.841224406000066, 49.589687398000038 ], [ 5.829958944000111, 49.582762756000065 ], [ 5.846908813000113, 49.576716614000091 ], [ 5.837400350000109, 49.561110332000069 ], [ 5.814456014000086, 49.545142314000131 ], [ 5.790684855000023, 49.537752585000121 ] ], [ [ 5.837296997000095, 49.712935690000037 ], [ 5.843704874000139, 49.714330954 ] ] ] } },
{ "type": "Feature", "properties": { }, "geometry": { "type": "MultiLineString", "coordinates": [ [ [ 2.521799927545686, 51.08754088371883 ], [ 2.537033325000095, 51.064610291000079 ], [ 2.547058553000113, 51.020478618000098 ], [ 2.556980428000116, 51.001177470000059 ], [ 2.592740519000131, 50.976114400000128 ], [ 2.608450154000082, 50.961128235000061 ], [ 2.611654093000055, 50.941232809000056 ], [ 2.605762980000065, 50.935238343000023 ], [ 2.582715291000113, 50.92066558900008 ], [ 2.576927531000138, 50.911518860000072 ], [ 2.596667928000102, 50.867645569000061 ], [ 2.595531046000076, 50.861134339 ], [ 2.587779582000081, 50.850023906000061 ], [ 2.586746053000098, 50.845424704000024 ], [ 2.589949992000072, 50.842014059000107 ], [ 2.602042277000066, 50.838086649000033 ], [ 2.606589803000077, 50.834831034000061 ], [ 2.615168091000015, 50.822170309000015 ], [ 2.620439087000136, 50.816485902000053 ], [ 2.627777140000148, 50.814418844 ], [ 2.642453247000049, 50.812455139000079 ], [ 2.650618123000044, 50.812248434000097 ] ], [ [ 2.669221639000114, 50.813902079000073 ], [ 2.678730102000088, 50.813230286000064 ], [ 2.691855916000065, 50.808837789000094 ], [ 2.696920207000119, 50.803050028000101 ], [ 2.700020792000089, 50.796280416000073 ], [ 2.706635376000065, 50.788787334000048 ], [ 2.743842407000074, 50.766204732000105 ], [ 2.74952681500011, 50.75959014900009 ], [ 2.762962687000083, 50.739384665000031 ], [ 2.768233683000119, 50.733235169000054 ], [ 2.786733846000033, 50.723364970000048 ], [ 2.86672588400009, 50.700091003000026 ], [ 2.87127648900011, 50.698766989000077 ], [ 2.886882772000149, 50.696648255000085 ] ], [ [ 2.650618123000044, 50.812248434000097 ], [ 2.669221639000114, 50.813902079000073 ] ], [ [ 3.103303671000049, 50.784084778000064 ], [ 3.129245239000085, 50.779072165000102 ], [ 3.146195109000104, 50.768891907000025 ], [ 3.162810519000061, 50.749939075000029 ], [ 3.162822752000096, 50.749925121000032 ], [ 3.176684204000082, 50.734113668000091 ], [ 3.188983195000048, 50.715096742000114 ], [ 3.1969413650001, 50.709205628000021 ], [ 3.210997355000103, 50.707965394000084 ], [ 3.224433227000077, 50.705174866000036 ], [ 3.232391398000118, 50.695924785 ], [ 3.243760213000115, 50.672101950000027 ], [ 3.229807576000042, 50.655410462000091 ], [ 3.237869100000097, 50.626471660000036 ], [ 3.264327433000091, 50.570196025000044 ], [ 3.265877726000042, 50.53831166600007 ], [ 3.27104537000011, 50.526942851000101 ], [ 3.286755005000089, 50.51407542 ], [ 3.299880819000066, 50.507460836000106 ], [ 3.343599080000047, 50.492939759000066 ], [ 3.361065714000091, 50.48978749700008 ] ], [ [ 2.886882772000149, 50.696648255000085 ], [ 2.900111938000038, 50.703107809000059 ], [ 2.930187622000119, 50.736232402000056 ], [ 2.948377726000047, 50.748686422000034 ], [ 2.971425415000112, 50.757833150000025 ], [ 3.023816593000049, 50.768262116000059 ], [ 3.103303671000049, 50.784084778000064 ] ], [ [ 3.477130982000119, 50.519863180000058 ], [ 3.491497029000129, 50.517072652000095 ], [ 3.498008260000091, 50.511853332 ], [ 3.496457967000083, 50.50379181000001 ], [ 3.486742798000137, 50.492681376000078 ], [ 3.499145142000089, 50.486790263000088 ], [ 3.56374068100007, 50.486531881000118 ], [ 3.586374959000096, 50.483482971000072 ], [ 3.608285766000051, 50.476506653000072 ], [ 3.628129517000048, 50.46436269200008 ], [ 3.644355916000052, 50.445500793000051 ], [ 3.652830851000147, 50.406846822000048 ], [ 3.652934204000076, 50.360183004000092 ], [ 3.661719198000071, 50.319306946000083 ], [ 3.696859172000131, 50.298222962000054 ] ], [ [ 3.361065714000091, 50.48978749700008 ], [ 3.385353637000094, 50.491647848000085 ], [ 3.429175252000078, 50.501828105000058 ], [ 3.442714477000067, 50.508494365000089 ], [ 3.45263635200007, 50.514850566000106 ], [ 3.462868286000059, 50.519139710000061 ], [ 3.477130982000119, 50.519863180000058 ] ], [ [ 3.798661743000082, 50.348452454 ], [ 3.840209595000061, 50.345196839000025 ], [ 3.860880168000079, 50.338478902000091 ], [ 3.878036743000052, 50.330779114000094 ], [ 3.895916789000097, 50.32530141300002 ] ], [ [ 3.703887167000119, 50.304320780000111 ], [ 3.708434692000083, 50.306336162000051 ], [ 3.711121867000088, 50.309333395000053 ], [ 3.71546268700007, 50.317653300000032 ], [ 3.733446085000054, 50.33723866800004 ], [ 3.741507609000053, 50.343129781000059 ], [ 3.755046834000041, 50.346333721000022 ], [ 3.798661743000082, 50.348452454 ] ], [ [ 4.003300415000098, 50.344059957000084 ], [ 4.022730753000076, 50.338117167000078 ], [ 4.055907023000088, 50.31455271500009 ], [ 4.077197713000146, 50.306646220000047 ], [ 4.097868286000079, 50.294812317000023 ], [ 4.125256795000041, 50.257140198000073 ], [ 4.143653605000111, 50.251610820000067 ] ], [ [ 3.895916789000097, 50.32530141300002 ], [ 3.918551066000049, 50.325456441000043 ], [ 3.982113077000122, 50.34261301700009 ], [ 4.003300415000098, 50.344059957000084 ] ], [ [ 3.702233520000078, 50.305250956000052 ], [ 3.703887167000119, 50.304320780000111 ] ], [ [ 3.696859172000131, 50.298222962000054 ], [ 3.700786580000084, 50.304682516000085 ], [ 3.702233520000078, 50.305250956000052 ] ], [ [ 4.162773885000121, 50.272953187000084 ], [ 4.17176558500006, 50.270886129000118 ], [ 4.185201457000119, 50.265460104000041 ], [ 4.197603800000081, 50.258483785000053 ], [ 4.203701619000128, 50.251972554000091 ], [ 4.20132450300008, 50.241533916000051 ], [ 4.19150598100012, 50.234299215000064 ], [ 4.167941528000114, 50.222465312000068 ], [ 4.157296183000113, 50.212698466000106 ], [ 4.152748657000103, 50.20453359 ], [ 4.147374308000025, 50.186343486000041 ], [ 4.128150675000114, 50.146242575000045 ], [ 4.125773559000066, 50.128155823000029 ], [ 4.139932902000112, 50.123556620000087 ] ], [ [ 4.143653605000111, 50.251610820000067 ], [ 4.150991658000123, 50.256261698000046 ], [ 4.149751424000073, 50.26313466500001 ], [ 4.150268189000116, 50.269542542000053 ], [ 4.162773885000121, 50.272953187000084 ] ], [ [ 4.815550578000085, 50.161332092000052 ], [ 4.820098103000106, 50.146449280000112 ], [ 4.831363566000078, 50.143400371000084 ] ], [ [ 4.435108683000095, 49.932250468000106 ], [ 4.464770956000081, 49.935609436000036 ], [ 4.60419396900005, 49.980206198000033 ], [ 4.645845174000073, 49.984495342000102 ], [ 4.656697225000102, 49.989094544000054 ], [ 4.665895629000119, 50.000515035000049 ], [ 4.672923624000134, 50.016379700000059 ], [ 4.680571737000093, 50.04831573500006 ], [ 4.67953820800011, 50.055188700000102 ], [ 4.675817505000111, 50.060201315000072 ], [ 4.673440389000064, 50.066195781000019 ], [ 4.676127563000108, 50.076065980000081 ], [ 4.681915324000073, 50.083920797000118 ], [ 4.788575480000134, 50.153373922000085 ], [ 4.815550578000085, 50.161332092000052 ] ], [ [ 4.862679484000097, 50.147586162000025 ], [ 4.871877889000075, 50.13978302 ], [ 4.870534302000124, 50.122264710000039 ], [ 4.865159953000074, 50.101594137000021 ], [ 4.86288619000004, 50.084075827000063 ] ], [ [ 4.831363566000078, 50.143400371000084 ], [ 4.862679484000097, 50.147586162000025 ] ], [ [ 4.170628703000148, 50.13048126200006 ], [ 4.180550578000037, 50.127225647000088 ], [ 4.197397095000042, 50.084075827000063 ], [ 4.203391561000046, 50.074670716000114 ], [ 4.210316203000048, 50.066712545000044 ], [ 4.210006144000147, 50.060149638000055 ], [ 4.186028279000141, 50.05244984900007 ], [ 4.162877238000135, 50.041804505000087 ], [ 4.14458378100008, 50.030797425000074 ], [ 4.137349080000092, 50.025061341000125 ], [ 4.132284790000114, 50.017568258 ], [ 4.128150675000114, 50.005786031000085 ], [ 4.132904907000096, 50.004494121000036 ], [ 4.138382609000075, 49.989197897000068 ], [ 4.139622843000041, 49.97452179 ] ], [ [ 4.139932902000112, 50.123556620000087 ], [ 4.159880005000048, 50.129396058000069 ], [ 4.170628703000148, 50.13048126200006 ] ], [ [ 4.86288619000004, 50.084075827000063 ], [ 4.852137492000111, 50.091620586000019 ] ], [ [ 4.852137492000111, 50.091620586000019 ], [ 4.846039673000064, 50.09069041000005 ], [ 4.827229451000051, 50.064077047000026 ], [ 4.826092570000128, 50.055033672000079 ], [ 4.827642863000079, 50.046713766000025 ], [ 4.826712687000111, 50.036016744 ], [ 4.78826542200008, 49.974263408000027 ], [ 4.783924601000081, 49.958295390000089 ], [ 4.797257120000097, 49.944291077000074 ], [ 4.84459273300007, 49.931733704000081 ], [ 4.860199016000109, 49.913336894000068 ], [ 4.8619560140001, 49.900314433000048 ], [ 4.85937219200008, 49.891684469 ], [ 4.854307902000102, 49.883312887000031 ], [ 4.848933553000052, 49.871065572000091 ], [ 4.845626261000064, 49.865846253000072 ], [ 4.836737915000128, 49.859128317000042 ], [ 4.834877564000124, 49.853030498000081 ], [ 4.836944620000082, 49.848017884000015 ], [ 4.846763142000071, 49.837527568000084 ], [ 4.849243611000134, 49.83158477800005 ], [ 4.849036906000066, 49.794171041000098 ], [ 4.858028605000129, 49.786574605000041 ], [ 4.884176879000023, 49.78414581300008 ] ], [ [ 4.139622843000041, 49.97452179 ], [ 4.132364978000112, 49.974945951 ], [ 4.131664672000056, 49.974986878000024 ] ], [ [ 4.131664672000056, 49.974986878000024 ], [ 4.187681925000078, 49.95550486300003 ], [ 4.201117798000041, 49.953024394000053 ] ], [ [ 4.27759891700012, 49.960155742 ], [ 4.427651209000089, 49.933571674000078 ], [ 4.435108683000095, 49.932250468000106 ] ], [ [ 4.201117798000041, 49.953024394000053 ], [ 4.215952935000132, 49.954407670000123 ], [ 4.27759891700012, 49.960155742 ] ], [ [ 4.970993286000123, 49.797064922000075 ], [ 4.989080037000122, 49.790553691000113 ], [ 5.026287068000045, 49.766730856000052 ], [ 5.04623417200014, 49.75939280200005 ], [ 5.081890909000037, 49.752726543000037 ], [ 5.093776489000078, 49.745336812000019 ], [ 5.13635787000004, 49.705339254000066 ], [ 5.151240682000093, 49.695985820000018 ], [ 5.169430786000135, 49.687200827000126 ], [ 5.192478475000087, 49.682808329000025 ] ], [ [ 4.884176879000023, 49.78414581300008 ], [ 4.906604451000106, 49.786471252000084 ], [ 4.950012654000119, 49.796393128 ], [ 4.968370957000019, 49.79698095600007 ], [ 4.970993286000123, 49.797064922000075 ] ], [ [ 5.259244425000134, 49.691334941000051 ], [ 5.280121704000095, 49.67789906900002 ], [ 5.299448690000048, 49.662499492 ], [ 5.306373332000135, 49.647513327000055 ], [ 5.301825806000096, 49.643895976000053 ], [ 5.293764282000012, 49.640537008000038 ], [ 5.29066369700007, 49.62637766600001 ], [ 5.2930408120001, 49.617179261 ], [ 5.29789839700004, 49.613251852000033 ], [ 5.314538208000073, 49.611133118000069 ] ], [ [ 5.192478475000087, 49.682808329000025 ], [ 5.237643677000079, 49.690973206000066 ], [ 5.259244425000134, 49.691334941000051 ] ], [ [ 5.334898722000077, 49.625809225000054 ], [ 5.341099894000081, 49.625137432000074 ], [ 5.352468709000078, 49.62069325800006 ], [ 5.3834745690001, 49.61330352800006 ], [ 5.391165749000066, 49.608817006 ], [ 5.402078084000038, 49.602451477 ], [ 5.450240519000118, 49.545762431000085 ], [ 5.454374633000043, 49.53661570300001 ], [ 5.454167928000089, 49.526177063000077 ], [ 5.450963989000115, 49.516771952000013 ], [ 5.449930461000037, 49.50783193000008 ], [ 5.456131633000041, 49.498943584000088 ], [ 5.477732381000095, 49.495222881000061 ] ], [ [ 5.314538208000073, 49.611133118000069 ], [ 5.321669555000085, 49.612580058000063 ], [ 5.326940552000025, 49.617644349000031 ], [ 5.331178019000077, 49.623122050000021 ], [ 5.334898722000077, 49.625809225000054 ] ], [ [ 5.74634647600007, 49.549431458000086 ], [ 5.757095174000114, 49.548397929000018 ], [ 5.779005982000058, 49.539612936000125 ], [ 5.790684855000023, 49.537752585000121 ] ], [ [ 5.710276327000088, 49.531086325 ], [ 5.72267867000005, 49.53460032200006 ], [ 5.735597779000074, 49.545710755000087 ], [ 5.74634647600007, 49.549431458000086 ] ], [ [ 5.644647257000145, 49.543798727000066 ], [ 5.667178182000072, 49.540439759000051 ], [ 5.688675578000101, 49.533515117000078 ], [ 5.710276327000088, 49.531086325 ] ], [ [ 5.587493124000019, 49.512431133000049 ], [ 5.60227258300003, 49.513723043000098 ], [ 5.605579875000046, 49.517753805 ], [ 5.607853638000051, 49.524936829000055 ], [ 5.619739217000074, 49.535530497000124 ], [ 5.644647257000145, 49.543798727000066 ] ], [ [ 5.547598918000091, 49.52343821200013 ], [ 5.578914836000081, 49.513929749000042 ], [ 5.587493124000019, 49.512431133000049 ] ], [ [ 5.477732381000095, 49.495222881000061 ], [ 5.503673950000064, 49.505093079000048 ], [ 5.528788696000078, 49.517960511000055 ], [ 5.547598918000091, 49.52343821200013 ] ] ] } },
{ "type": "Feature", "properties": { }, "geometry": { "type": "MultiLineString", "coordinates": [ [ [ 5.994910116000113, 50.749926656000085 ], [ 5.993256469000073, 50.74806630500008 ], [ 5.992636353000108, 50.746257630000073 ], [ 5.992739705000133, 50.744448955000095 ], [ 5.994186645000127, 50.742588603000073 ], [ 6.010826457000036, 50.737059225000067 ], [ 6.011343221000089, 50.72744740800006 ], [ 6.007622518000062, 50.716905417000092 ], [ 6.011549926000043, 50.708533835000125 ], [ 6.02477909300012, 50.707551982000055 ] ], [ [ 6.064363240000091, 50.714476624000056 ], [ 6.081003052000113, 50.713494772000089 ], [ 6.100226685000052, 50.701299134000053 ], [ 6.161101521000063, 50.642181296 ], [ 6.147769002000047, 50.636755270000023 ], [ 6.159447876000115, 50.622389222000024 ], [ 6.180015096000119, 50.615516256000049 ], [ 6.249054809000086, 50.614431051000068 ], [ 6.251328572000091, 50.608436585000035 ], [ 6.244300577000075, 50.599548239000015 ], [ 6.232931763000096, 50.590763245000048 ], [ 6.232931763000096, 50.587145894000045 ], [ 6.210607543000037, 50.578670959000036 ], [ 6.17908492000015, 50.561979472000118 ], [ 6.160688110000052, 50.543582663 ], [ 6.177327922000075, 50.530198466000073 ], [ 6.169473103000144, 50.522498678 ], [ 6.170816691000113, 50.517951152000037 ], [ 6.178878214000093, 50.515780742000047 ], [ 6.190557088000077, 50.515212301000091 ], [ 6.182598917000121, 50.506582337000069 ], [ 6.190660441000091, 50.501828105000058 ], [ 6.199238729000029, 50.490407613000073 ], [ 6.207196900000099, 50.486325175000061 ], [ 6.217118774000085, 50.486015117000065 ] ], [ [ 6.02477909300012, 50.707551982000055 ], [ 6.064363240000091, 50.714476624000056 ] ], [ [ 6.255566040000133, 50.494593404000099 ], [ 6.257839803000053, 50.494076640000074 ], [ 6.260113566000086, 50.492681376000078 ], [ 6.27540979000014, 50.488030497000025 ], [ 6.31871464000011, 50.481674296000094 ], [ 6.336904744000037, 50.481002502000095 ], [ 6.325742635000097, 50.474026184000095 ], [ 6.32326216600012, 50.466016337000028 ], [ 6.326156046000108, 50.457024638000078 ], [ 6.331633748000115, 50.446896057000046 ], [ 6.340212036000139, 50.43785268200007 ], [ 6.347343384000084, 50.436974183000061 ], [ 6.351167440000012, 50.43356353800003 ], [ 6.350443969000111, 50.416872051000084 ], [ 6.34331262200007, 50.393307597000089 ], [ 6.336387980000097, 50.379923402000045 ], [ 6.337731567000077, 50.368089498000032 ], [ 6.372458130000098, 50.32943552700003 ], [ 6.373399684000105, 50.323080035000075 ], [ 6.374525187000074, 50.31548289100003 ], [ 6.36201949000008, 50.306956279000119 ], [ 6.335457804000043, 50.303855692000084 ] ], [ [ 6.217118774000085, 50.486015117000065 ], [ 6.25091516100008, 50.492681376000078 ], [ 6.253085571000071, 50.494076640000074 ], [ 6.255566040000133, 50.494593404000099 ] ], [ [ 6.335457804000043, 50.303855692000084 ], [ 6.322021932000098, 50.305405986 ], [ 6.310653116000111, 50.308248190000072 ], [ 6.299491007000086, 50.308868307000054 ] ], [ [ 6.299491007000086, 50.308868307000054 ], [ 6.285951782000097, 50.303855692000084 ], [ 6.276029907000094, 50.296104228000061 ], [ 6.269415324000107, 50.286492412000072 ], [ 6.267348267000045, 50.276415507000124 ], [ 6.271792439000137, 50.267423808000089 ], [ 6.253395630000057, 50.256778463000089 ], [ 6.210400838000083, 50.249026998 ], [ 6.189626912000023, 50.242722473000057 ], [ 6.179808390000062, 50.233007304000026 ], [ 6.15717411300011, 50.222723694000038 ], [ 6.146838827000096, 50.214042054000075 ], [ 6.160171346000112, 50.20453359 ], [ 6.165752400000144, 50.193164775000085 ], [ 6.165132284000066, 50.181899312000056 ], [ 6.159137817000044, 50.172442526000069 ], [ 6.151696411000017, 50.169341939000034 ], [ 6.13174930800011, 50.168308411000041 ], [ 6.123171020000058, 50.164897767000028 ], [ 6.121310668000149, 50.161590475000125 ], [ 6.11800337700015, 50.150376689000083 ], [ 6.115832967000074, 50.145467428000032 ], [ 6.125961547000117, 50.140196432000025 ], [ 6.129475545000076, 50.134046937000036 ], [ 6.126581665000089, 50.127329000000103 ], [ 6.11748661300004, 50.120456035000061 ] ] ] } },
{ "type": "Feature", "properties": { }, "geometry": { "type": "MultiLineString", "coordinates": [ [ [ 4.822681925000012, 51.413684591000035 ], [ 4.815447224000138, 51.431073711000053 ], [ 4.819891398000067, 51.446214905000076 ], [ 4.826092570000128, 51.460555115000048 ], [ 4.823922159000062, 51.475644633000073 ], [ 4.813586873000133, 51.484119569000072 ], [ 4.796843709000086, 51.491018372000028 ], [ 4.778653605000045, 51.495359192000123 ], [ 4.764184204000117, 51.496237691000047 ] ], [ [ 4.764184204000117, 51.496237691000047 ], [ 4.731214641000065, 51.485618185000064 ], [ 4.653906697000053, 51.426216126000028 ], [ 4.643571411000067, 51.42141021700003 ], [ 4.630135539000094, 51.418206279000046 ], [ 4.614632609000097, 51.417560322999989 ] ], [ [ 4.553861125000083, 51.419291484000055 ], [ 4.540631958000091, 51.420066630000051 ], [ 4.521511678000081, 51.428644917999989 ], [ 4.523372029000086, 51.438411764000037 ], [ 4.531846964000096, 51.450865784000129 ], [ 4.533190551000075, 51.467583110000064 ], [ 4.525232381000109, 51.475928854000031 ], [ 4.512623331000071, 51.477375794000025 ] ], [ [ 4.512623331000071, 51.477375794000025 ], [ 4.483064412000147, 51.474326884 ], [ 4.429424275000059, 51.461976217000043 ], [ 4.37712772600014, 51.44288177500006 ], [ 4.389220011000134, 51.434587708000024 ], [ 4.387152954000072, 51.427456360000079 ], [ 4.3806417240001, 51.41965321900004 ], [ 4.379918253000113, 51.409524638000093 ], [ 4.387669719000115, 51.400532939000058 ], [ 4.410097290000124, 51.383789775000096 ], [ 4.416195109000085, 51.37397125300005 ], [ 4.411234171000018, 51.356737162000044 ], [ 4.392217244000051, 51.350406799000027 ] ], [ [ 5.140181926000082, 51.307386170000044 ], [ 5.122921997000105, 51.313380636000076 ], [ 5.118064412000081, 51.319917705000037 ], [ 5.107832479000081, 51.341983541000033 ], [ 5.102561483000073, 51.3506651820001 ], [ 5.068144979000095, 51.374539694000092 ], [ 5.061737101000062, 51.384254863000123 ], [ 5.065251099000108, 51.405907288000023 ], [ 5.076413208000048, 51.421901144000046 ], [ 5.079927205000104, 51.438540955000079 ], [ 5.060290161000069, 51.461976217000043 ], [ 5.030317831000048, 51.474430237000021 ], [ 5.027527303000085, 51.476807353000069 ] ], [ [ 5.027527303000085, 51.476807353000069 ], [ 5.012127727000092, 51.474326884 ], [ 5.00613326000007, 51.468306580000061 ], [ 5.002722616000142, 51.45900482200004 ], [ 4.995797973000066, 51.446705831000102 ], [ 4.980191691000101, 51.430531108000096 ], [ 4.957144002000064, 51.410997416 ], [ 4.931925903000092, 51.395623678000035 ], [ 4.910325154000134, 51.391902975 ] ], [ [ 4.779067016000056, 51.426422832000085 ], [ 4.822681925000012, 51.413684591000035 ] ], [ [ 4.910325154000134, 51.391902975 ], [ 4.871671183000046, 51.403039246000034 ], [ 4.853274373000119, 51.406139832000079 ], [ 4.783304484000013, 51.407638448000071 ], [ 4.762117146000151, 51.413374532000049 ], [ 4.767801554000101, 51.425389303000102 ], [ 4.779067016000056, 51.426422832000085 ] ], [ [ 4.614632609000097, 51.417560322999989 ], [ 4.582696573000106, 51.422598776000044 ] ], [ [ 4.582696573000106, 51.422598776000044 ], [ 4.553861125000083, 51.419291484000055 ] ], [ [ 4.392217244000051, 51.350406799000027 ], [ 4.345605103000082, 51.352292990000038 ], [ 4.326278117000129, 51.356427104000076 ], [ 4.290104614000114, 51.368751933000013 ], [ 4.28112422200013, 51.368946510000043 ], [ 4.261067579000098, 51.369379275000071 ] ], [ [ 5.232992798000112, 51.255916443000061 ], [ 5.215422811000025, 51.258732808000033 ], [ 5.214906047000085, 51.29433787 ], [ 5.197336059000122, 51.308342183000022 ], [ 5.178835897000084, 51.309504903000018 ] ], [ [ 5.178835897000084, 51.309504903000018 ], [ 5.140181926000082, 51.307386170000044 ] ], [ [ 5.659013306000048, 51.179073588000065 ], [ 5.648161255000105, 51.183957011000089 ], [ 5.638549438000098, 51.19090749100009 ], [ 5.62501021300011, 51.196901957000122 ], [ 5.568372843000134, 51.207650655000052 ], [ 5.551406597000096, 51.216767134000108 ], [ 5.54553186000004, 51.219923808 ], [ 5.542327921000066, 51.242661439000059 ], [ 5.535196573000121, 51.262040100000021 ], [ 5.516696411000083, 51.27723297200005 ], [ 5.49323531100012, 51.286534729000081 ], [ 5.471634562000133, 51.288085023000107 ] ], [ [ 5.471634562000133, 51.288085023000107 ], [ 5.451894165000084, 51.282116394000084 ], [ 5.409932901000076, 51.263538717000031 ], [ 5.389055623000104, 51.258706971000024 ] ], [ [ 5.389055623000104, 51.258706971000024 ], [ 5.270716593000145, 51.261833395000068 ] ], [ [ 5.270716593000145, 51.261833395000068 ], [ 5.239455934000091, 51.25693018200009 ], [ 5.232992798000112, 51.255916443000061 ] ], [ [ 5.781383098000106, 51.152408549000128 ], [ 5.768050577000082, 51.159462383000047 ], [ 5.74717329900011, 51.177600810000072 ], [ 5.730843547000063, 51.18375030600005 ], [ 5.718027791000083, 51.184602967000089 ] ], [ [ 5.718027791000083, 51.184602967000089 ], [ 5.676169881000106, 51.179176941000023 ], [ 5.659013306000048, 51.179073588000065 ] ], [ [ 5.81590295400008, 51.095874532000082 ], [ 5.826651652000095, 51.096908061000065 ], [ 5.836780232000137, 51.099491883000056 ], [ 5.845978638000048, 51.103393454000113 ], [ 5.823241007000064, 51.118741354000079 ], [ 5.826444946000038, 51.130161844999989 ], [ 5.840500936000069, 51.138921 ], [ 5.838020467000092, 51.14372690900008 ], [ 5.829132121000072, 51.156465149000027 ], [ 5.812078898000038, 51.157317810000066 ] ], [ [ 5.812078898000038, 51.157317810000066 ], [ 5.781383098000106, 51.152408549000128 ] ], [ [ 5.804947550000094, 51.096623840000078 ], [ 5.81590295400008, 51.095874532000082 ] ], [ [ 5.791304972000091, 51.054998475000062 ], [ 5.798849731000132, 51.061483866000046 ], [ 5.804327434000129, 51.068589376000048 ], [ 5.81176884000007, 51.082309469000094 ], [ 5.808978312000107, 51.08634023000009 ], [ 5.807428019000071, 51.089389140000023 ], [ 5.804947550000094, 51.096623840000078 ] ], [ [ 5.779626098000023, 51.061302999000091 ], [ 5.791304972000091, 51.054998475000062 ] ], [ [ 5.722368612000082, 50.959422913000097 ], [ 5.761746053000081, 50.999162090000098 ], [ 5.777559041000075, 51.02355336600003 ], [ 5.764019816000086, 51.035180563000083 ], [ 5.766396932000134, 51.048435568000073 ], [ 5.771461222000113, 51.05812489900002 ], [ 5.779626098000023, 51.061302999000091 ] ], [ [ 5.717407674000128, 50.752820537000062 ], [ 5.706555623000071, 50.75421580000004 ], [ 5.688365519000115, 50.760830384000045 ], [ 5.698700806000119, 50.783774720000068 ], [ 5.700457804000109, 50.795556946000076 ], [ 5.68485152100007, 50.79850250300008 ], [ 5.663250773000101, 50.805065410000068 ], [ 5.657432381000092, 50.80764098200008 ], [ 5.640719849000078, 50.81503896100007 ], [ 5.624493448000067, 50.830283509000097 ], [ 5.622323039000094, 50.852659404000079 ], [ 5.694463338000077, 50.903664042000045 ], [ 5.706038859000046, 50.906609599000049 ], [ 5.717614380000072, 50.909245097000067 ], [ 5.722368612000082, 50.911673890000131 ], [ 5.73528771900007, 50.923972881000068 ], [ 5.752547648000075, 50.947227275000088 ], [ 5.764019816000086, 50.959422913000097 ], [ 5.75430464700014, 50.963091940000098 ], [ 5.744692830000133, 50.963246969000053 ] ], [ [ 5.744692830000133, 50.963246969000053 ], [ 5.722368612000082, 50.959422913000097 ] ], [ [ 5.793165324000114, 50.752148743000092 ], [ 5.782933390000039, 50.75669627000012 ], [ 5.762469523000078, 50.771010641000018 ], [ 5.752444296000135, 50.773439433000064 ] ], [ [ 5.752444296000135, 50.773439433000064 ], [ 5.74355594900004, 50.769098613 ], [ 5.732776968000081, 50.758851489000094 ], [ 5.727846313000072, 50.754164124000042 ], [ 5.717407674000128, 50.752820537000062 ] ], [ [ 5.974756307000035, 50.747549540000037 ], [ 5.902202596000024, 50.749048157000047 ], [ 5.89132117000014, 50.751239556000073 ], [ 5.891287548000122, 50.751246327000032 ], [ 5.879878377000068, 50.75354400600007 ] ], [ [ 5.879878377000068, 50.75354400600007 ], [ 5.793165324000114, 50.752148743000092 ] ], [ [ 5.994910116000113, 50.749926656000085 ], [ 5.974756307000035, 50.747549540000037 ] ] ] } },
{ "type": "Feature", "properties": { }, "geometry": { "type": "MultiLineString", "coordinates": [ [ [ 3.45387658700011, 51.235633444000044 ], [ 3.421940552000109, 51.237984720999989 ], [ 3.398798477000071, 51.244698293000013 ], [ 3.391658163000102, 51.24676971500007 ], [ 3.367370240000099, 51.263487040000101 ], [ 3.353210897000054, 51.288601787000047 ], [ 3.353934366000146, 51.311907858000083 ], [ 3.358068481000061, 51.336712546000015 ], [ 3.349414674000116, 51.375223118000051 ] ], [ [ 4.221491455000091, 51.368000603000027 ], [ 4.220961547000115, 51.363816834000076 ], [ 4.213520141000089, 51.340536601000039 ], [ 4.207939087000085, 51.330588888000037 ], [ 4.168561645000096, 51.296870016000085 ], [ 4.118952271000097, 51.272401225000053 ], [ 3.995032186000032, 51.233230489000093 ], [ 3.949453572000067, 51.210777080000085 ], [ 3.927026001000058, 51.206255392000074 ], [ 3.8086869710001, 51.20532521600002 ] ], [ [ 3.8086869710001, 51.20532521600002 ], [ 3.796284627000119, 51.20876169800006 ], [ 3.781401815000095, 51.219872132000077 ], [ 3.779748169000129, 51.230310771000106 ], [ 3.781401815000095, 51.241421204000019 ], [ 3.776234172000102, 51.254521180000083 ], [ 3.757320597000046, 51.262324321 ], [ 3.635054159000049, 51.287826640000034 ], [ 3.609526001000091, 51.290436300000053 ] ], [ [ 3.609526001000091, 51.290436300000053 ], [ 3.584824666000088, 51.289531963000101 ], [ 3.54503381300006, 51.283925069000063 ], [ 3.529014120000113, 51.283330791000097 ], [ 3.514338012000024, 51.281031188999989 ], [ 3.503382609000141, 51.273951518000061 ], [ 3.501522258000136, 51.262401836000024 ], [ 3.504106079000053, 51.249741110000073 ], [ 3.501212199000065, 51.240284323000097 ], [ 3.45387658700011, 51.235633444000044 ] ] ] } },
{ "type": "Feature", "properties": { }, "geometry": { "type": "MultiLineString", "coordinates": [ [ [ 6.780113936001085, 52.0 ], [ 6.804008016000068, 51.984373271 ], [ 6.809175659000061, 51.979541525000073 ], [ 6.811656127000049, 51.972797751000044 ], [ 6.81072595200007, 51.960576274000019 ], [ 6.805661661000102, 51.957527365 ], [ 6.798013550000121, 51.956700542000064 ], [ 6.789848673000108, 51.95114532500007 ], [ 6.767007690000099, 51.925513815 ], [ 6.743753296000079, 51.908331401000041 ], [ 6.716674846000046, 51.899262187000048 ], [ 6.628153117000068, 51.897505189000086 ], [ 6.528624308000133, 51.876421204000067 ], [ 6.47942834400007, 51.853011780000102 ], [ 6.462891887000069, 51.848360901000021 ], [ 6.442531372000133, 51.848360901000021 ] ], [ [ 6.225180298000083, 51.862546082000094 ], [ 6.191383911000088, 51.871150208000117 ], [ 6.159241170000058, 51.887299093000095 ], [ 6.1269950760001, 51.896730041000083 ] ], [ [ 6.1269950760001, 51.896730041000083 ], [ 6.09299198400015, 51.885309550000059 ], [ 6.105394327000056, 51.879470113000067 ], [ 6.142704712000068, 51.855182190000093 ], [ 6.156140584000127, 51.842056376000116 ] ], [ [ 6.344966268000121, 51.821101583000129 ], [ 6.341969034000016, 51.836682028000055 ], [ 6.325742635000097, 51.842547303000046 ], [ 6.287398722000091, 51.846164653000031 ], [ 6.282851196000138, 51.849601135000071 ], [ 6.271792439000137, 51.861900127000112 ], [ 6.264661092000011, 51.866189271000067 ], [ 6.256392862000069, 51.866809387000032 ] ], [ [ 6.256392862000069, 51.866809387000032 ], [ 6.225180298000083, 51.862546082000094 ] ], [ [ 6.442531372000133, 51.848360901000021 ], [ 6.378452596000045, 51.86011728900003 ] ], [ [ 6.378452596000045, 51.86011728900003 ], [ 6.38661747200004, 51.837560527000093 ], [ 6.382483358000115, 51.827586975000074 ], [ 6.344966268000121, 51.821101583000129 ] ], [ [ 6.156140584000127, 51.842056376000116 ], [ 6.140017537000062, 51.844536845000093 ], [ 6.116453084000057, 51.848283387000023 ], [ 6.084000284000126, 51.853657735000056 ] ], [ [ 6.084000284000126, 51.853657735000056 ], [ 6.043279256000062, 51.846862285000029 ], [ 6.028913208000063, 51.842108053000047 ], [ 6.008242635000045, 51.832573751000055 ], [ 5.988915650000081, 51.82745778400006 ], [ 5.948091268000098, 51.822961935000123 ], [ 5.931451457000065, 51.815649720000053 ], [ 5.928040812000063, 51.806735535000101 ], [ 5.950778442000114, 51.795909322000071 ], [ 5.964110962000063, 51.776556499000023 ], [ 5.962353963000083, 51.756351013000128 ], [ 5.946056400000117, 51.746288216000025 ], [ 5.940133097000029, 51.742630921000099 ], [ 5.939306274000103, 51.731882223000085 ], [ 5.949228150000096, 51.729375916 ] ], [ [ 5.978270304000091, 51.729789327 ], [ 5.989742472000103, 51.726378682000089 ], [ 6.012066691000086, 51.715862528000045 ], [ 6.02198856600009, 51.709506328000018 ], [ 6.008552694000116, 51.681187643 ], [ 6.031497030000054, 51.662997539000074 ], [ 6.099193156000069, 51.644471538000047 ], [ 6.087514282000086, 51.622095642000048 ], [ 6.082139933000121, 51.607807109000063 ], [ 6.086480754000092, 51.59553395600004 ], [ 6.153039998000082, 51.538431499000026 ], [ 6.19334761500005, 51.509337667000111 ], [ 6.20047896300008, 51.476574809000013 ], [ 6.205336548000105, 51.458436382000073 ], [ 6.201719197000102, 51.438644308 ], [ 6.194071086000122, 51.417379456000035 ], [ 6.192727499000057, 51.398956808000023 ], [ 6.207817016000149, 51.387665508000069 ], [ 6.202029256000088, 51.378880513000055 ], [ 6.198928670000043, 51.3569697060001 ], [ 6.193554321000079, 51.344515686000037 ], [ 6.183632446000104, 51.335704854000042 ], [ 6.158207641000075, 51.324594422000118 ], [ 6.147769002000047, 51.318160706000057 ], [ 6.096505981000121, 51.258810324000038 ], [ 6.075421997000092, 51.242661439000059 ], [ 6.065190063000102, 51.231628520000058 ], [ 6.056611776000096, 51.211707255000036 ], [ 6.053717895000091, 51.18938303700007 ], [ 6.060849243000121, 51.17090871200007 ], [ 6.084310344000102, 51.162692159000031 ] ], [ [ 5.949228150000096, 51.729375916 ], [ 5.978270304000091, 51.729789327 ] ], [ [ 6.134126424000044, 51.184215394000077 ], [ 6.157070760000067, 51.179254456000123 ], [ 6.149112589000111, 51.176334737000033 ], [ 6.12627160700012, 51.164578349000053 ], [ 6.147252238000107, 51.15225352 ], [ 6.132369426000082, 51.139825338000023 ], [ 6.075421997000092, 51.120369161000028 ], [ 5.982921183000144, 51.074687195000124 ], [ 5.969485311000113, 51.064920350000065 ], [ 5.950261678000089, 51.039469707000038 ], [ 5.937962687000038, 51.03094309500004 ], [ 5.919565877000139, 51.02970286 ] ], [ [ 6.084310344000102, 51.162692159000031 ], [ 6.134126424000044, 51.184215394000077 ] ], [ [ 5.919565877000139, 51.02970286 ], [ 5.906233358000122, 51.037402649000072 ], [ 5.894347778000082, 51.047143657000035 ], [ 5.88049849500004, 51.052052918000058 ] ], [ [ 5.88049849500004, 51.052052918000058 ], [ 5.852489868000106, 51.042751160000037 ], [ 5.858174275000067, 51.019341736000072 ], [ 5.87357385200005, 50.990583801000056 ], [ 5.874607381000118, 50.965365703000018 ] ], [ [ 5.927730754000066, 50.977664694000069 ], [ 5.941580037000023, 50.976476135000027 ], [ 5.967831665000062, 50.970998434000037 ] ], [ [ 5.874607381000118, 50.965365703000018 ], [ 5.888249959000035, 50.967122701000093 ], [ 5.914191529000078, 50.97523590100009 ], [ 5.927730754000066, 50.977664694000069 ] ], [ [ 6.003695109000091, 50.973737284 ], [ 6.005762167000057, 50.968517965000061 ], [ 5.999664348000096, 50.960094706000078 ], [ 5.995840291000064, 50.951774801000013 ], [ 5.997287232000076, 50.937357076000112 ], [ 5.999871053000078, 50.929398906000031 ], [ 6.007519165000133, 50.924076233000093 ], [ 6.031083618000139, 50.914722799000046 ], [ 6.063743124000041, 50.907539775000018 ], [ 6.061779419000089, 50.90350901300009 ], [ 6.056508423000139, 50.898082988000041 ], [ 6.054648071000145, 50.891468404000037 ], [ 6.063123006000069, 50.870901184000061 ], [ 6.062812948000072, 50.862943014000095 ], [ 6.056715129000111, 50.852659404000079 ], [ 6.045553019000067, 50.844184469000098 ] ], [ [ 5.967831665000062, 50.970998434000037 ], [ 6.003695109000091, 50.973737284 ] ], [ [ 6.045553019000067, 50.844184469000098 ], [ 6.023022095000073, 50.845424704000024 ] ], [ [ 6.023022095000073, 50.845424704000024 ], [ 6.009276164000113, 50.840463765000081 ], [ 6.000491170000117, 50.830438538000053 ], [ 6.001421346000086, 50.821808574 ], [ 6.003591756000077, 50.812610169000024 ], [ 5.998320760000041, 50.800724589000069 ], [ 5.983954712000127, 50.792197978000061 ] ], [ [ 5.983954712000127, 50.792197978000061 ], [ 5.968761841000116, 50.794626770000022 ] ], [ [ 5.968761841000116, 50.794626770000022 ], [ 5.972999308000055, 50.781811015000031 ], [ 5.980647420000139, 50.773439433000064 ], [ 5.990569295000057, 50.769046936000066 ], [ 5.997080525000115, 50.762949117000019 ], [ 5.994910116000113, 50.749926656000085 ] ] ] } },
{ "type": "Feature", "properties": { }, "geometry": { "type": "LineString", "coordinates": [ [ 2.0, 51.009264504849881 ], [ 2.134043816000087, 51.019964911000045 ], [ 2.305511915000068, 51.055405992000033 ], [ 2.31609134200005, 51.059027411000045 ], [ 2.324473504000082, 51.059881903000075 ], [ 2.38445071700005, 51.05532461100006 ], [ 2.466075066000087, 51.068793036000045 ], [ 2.506683790000068, 51.080755927000041 ], [ 2.521494988000086, 51.087388414000088 ], [ 2.521820509000065, 51.087551174000055 ], [ 2.542002800000091, 51.096869208000044 ], [ 2.579925977000073, 51.104803778000075 ], [ 2.715668165000068, 51.169501044000071 ], [ 2.92359459700009, 51.246486721000053 ], [ 3.124847852000073, 51.329657294000071 ], [ 3.34896894600007, 51.375148830000057 ], [ 3.349457227000073, 51.375230210000041 ], [ 3.510915561000047, 51.407945054000038 ], [ 3.525726759000065, 51.415594794000071 ], [ 3.541351759000065, 51.416734117000033 ], [ 3.604665561000047, 51.391058661000045 ], [ 3.702159050000091, 51.373602606000077 ], [ 3.734222852000073, 51.35578034100007 ], [ 3.75554446700005, 51.350083726000037 ], [ 3.795909050000091, 51.350083726000037 ], [ 3.833994988000086, 51.343247789000088 ], [ 3.858164910000085, 51.345445054000038 ], [ 3.955821160000085, 51.371771552000041 ], [ 3.969248894000089, 51.381659247000073 ], [ 3.974619988000086, 51.401597398000035 ], [ 3.98414147200009, 51.41046784100007 ], [ 4.005707227000073, 51.409816799000055 ], [ 4.02906334700009, 51.404201565000051 ], [ 4.043467644000089, 51.398504950000074 ], [ 4.050059441000087, 51.392238674000055 ], [ 4.061289910000085, 51.376654364000046 ], [ 4.070160352000073, 51.37055084800005 ], [ 4.081309441000087, 51.368150132000039 ], [ 4.105479363000086, 51.366115627000056 ], [ 4.115489129000082, 51.360988674000055 ], [ 4.121918165000068, 51.359361070000034 ], [ 4.156504754000082, 51.357570705000057 ], [ 4.173675977000073, 51.373724677000041 ], [ 4.180023634000065, 51.377427476000037 ], [ 4.199554884000065, 51.376044012000079 ], [ 4.221527540000068, 51.367987372000073 ], [ 4.222178582000083, 51.367743231000077 ], [ 4.241058790000068, 51.356594143000052 ], [ 4.249034050000091, 51.346665757000039 ], [ 4.256114129000082, 51.32843659100007 ], [ 4.272634311000047, 51.315822658000059 ], [ 4.29078209700009, 51.305894273000035 ], [ 4.302989129000082, 51.296087958000044 ], [ 4.306651238000086, 51.289740302000041 ], [ 4.308116082000083, 51.283636786000045 ], [ 4.305430535000085, 51.276597398000035 ], [ 4.298675977000073, 51.269598700000074 ], [ 4.296722852000073, 51.267564195000034 ], [ 4.30836022200009, 51.271226304000038 ], [ 4.316416863000086, 51.276841539000088 ], [ 4.330821160000085, 51.296087958000044 ], [ 4.297129754000082, 51.305161851000037 ], [ 4.289317254000082, 51.309149481000077 ], [ 4.285411004000082, 51.318019924000055 ], [ 4.286143425000091, 51.339667059000078 ], [ 4.283050977000073, 51.350083726000037 ], [ 4.275645379000082, 51.358099677000041 ], [ 4.26107832100007, 51.369370835000041 ], [ 4.257090691000087, 51.37250397300005 ], [ 4.249034050000091, 51.38422272300005 ], [ 4.246348504000082, 51.396429755000042 ], [ 4.246836785000085, 51.406724351000037 ], [ 4.244883660000085, 51.414496161000045 ], [ 4.234711134000065, 51.419012762000079 ], [ 4.222992384000065, 51.409491278000075 ], [ 4.201019727000073, 51.405340887000079 ], [ 4.11109459700009, 51.406968492000033 ], [ 4.090342644000089, 51.411281643000052 ], [ 4.070160352000073, 51.419012762000079 ], [ 4.015147332000083, 51.448919989000046 ], [ 3.998789910000085, 51.453111070000034 ], [ 3.957041863000086, 51.455796617000033 ], [ 3.94312584700009, 51.450384833000044 ], [ 3.91342207100007, 51.415269273000035 ], [ 3.90211022200009, 51.40493398600006 ], [ 3.886729363000086, 51.399807033000059 ], [ 3.850759311000047, 51.397365627000056 ], [ 3.837901238000086, 51.392238674000055 ], [ 3.827159050000091, 51.391058661000045 ], [ 3.816416863000086, 51.394110419000071 ], [ 3.789073113000086, 51.412176825000074 ], [ 3.728770379000082, 51.430812893000052 ], [ 3.689707879000082, 51.454291083000044 ], [ 3.674001498000052, 51.45538971600007 ], [ 3.63257897200009, 51.445705471000053 ], [ 3.610036655000044, 51.445054429000038 ], [ 3.553396030000044, 51.453111070000034 ], [ 3.535411004000082, 51.459214585000041 ], [ 3.520192905000044, 51.473374742000033 ], [ 3.506846550000091, 51.489325262000079 ], [ 3.494802280000044, 51.500921942000048 ], [ 3.461924675000091, 51.51898834800005 ], [ 3.451019727000073, 51.529730536000045 ], [ 3.44703209700009, 51.545965887000079 ], [ 3.457530144000089, 51.555080471000053 ], [ 3.560394727000073, 51.594631252000056 ], [ 3.828868035000085, 51.61273834800005 ], [ 3.851084832000083, 51.61078522300005 ], [ 3.866058790000068, 51.605414130000042 ], [ 3.88217207100007, 51.596096096000053 ], [ 3.896494988000086, 51.583807684000078 ], [ 3.905772332000083, 51.569240627000056 ], [ 3.895274285000085, 51.566595770000049 ], [ 3.87826582100007, 51.559393622000073 ], [ 3.871592644000089, 51.555568752000056 ], [ 3.871592644000089, 51.549383856000077 ], [ 3.967295769000089, 51.543117580000057 ], [ 4.015879754000082, 51.530829169000071 ], [ 4.057139519000089, 51.508368231000077 ], [ 4.070323113000086, 51.492743231000077 ], [ 4.090017123000052, 51.458238023000035 ], [ 4.10482832100007, 51.445705471000053 ], [ 4.128754102000073, 51.441351630000042 ], [ 4.180837436000047, 51.445868231000077 ], [ 4.200450066000087, 51.439520575000074 ], [ 4.220225457000083, 51.443548895000049 ], [ 4.252777540000068, 51.442531643000052 ], [ 4.263845248000052, 51.444403387000079 ], [ 4.283213738000086, 51.447699286000045 ], [ 4.296722852000073, 51.470526434000078 ], [ 4.288584832000083, 51.492132880000042 ], [ 4.267751498000052, 51.508286851000037 ], [ 4.239756707000083, 51.518500067000048 ], [ 4.230479363000086, 51.519558010000083 ], [ 4.19467207100007, 51.523586330000057 ], [ 4.153330925000091, 51.535060940000051 ], [ 4.137950066000087, 51.535874742000033 ], [ 4.106293165000068, 51.53351471600007 ], [ 4.091319207000083, 51.535060940000051 ], [ 4.067230665000068, 51.544012762000079 ], [ 3.988129102000073, 51.590277411000045 ], [ 4.041188998000052, 51.606024481000077 ], [ 4.06771894600007, 51.610663153000075 ], [ 4.157237175000091, 51.607896226000037 ], [ 4.18336022200009, 51.602932033000059 ], [ 4.206879102000073, 51.590521552000041 ], [ 4.207286004000082, 51.590277411000045 ], [ 4.202647332000083, 51.609116929000038 ], [ 4.189952019000089, 51.616685289000088 ], [ 4.186127149000072, 51.616807359000063 ], [ 4.146657748000052, 51.617865302000041 ], [ 4.135996941000087, 51.620428778000075 ], [ 4.125987175000091, 51.624701239000046 ], [ 4.118011915000068, 51.630682684000078 ], [ 4.11296634200005, 51.639390367000033 ], [ 4.109873894000089, 51.650864976000037 ], [ 4.109629754000082, 51.662298895000049 ], [ 4.11264082100007, 51.670803127000056 ], [ 4.125661655000044, 51.679632880000042 ], [ 4.142914259000065, 51.684149481000077 ], [ 4.176931186000047, 51.68585846600007 ], [ 4.166351759000065, 51.692694403000075 ], [ 4.141123894000089, 51.703924872000073 ], [ 4.071543816000087, 51.717189846000053 ], [ 4.057139519000089, 51.730292059000078 ], [ 4.050791863000086, 51.763495184000078 ], [ 4.033946160000085, 51.784247137000079 ], [ 4.009776238000086, 51.797919012000079 ], [ 3.981455925000091, 51.81000397300005 ], [ 3.96257571700005, 51.801214911000045 ], [ 3.93718509200005, 51.79633209800005 ], [ 3.911387566000087, 51.796372789000088 ], [ 3.891856316000087, 51.792954820000034 ], [ 3.888194207000083, 51.788885809000078 ], [ 3.881114129000082, 51.788072007000039 ], [ 3.871592644000089, 51.788275458000044 ], [ 3.862315300000091, 51.816066799000055 ], [ 3.891368035000085, 51.828273830000057 ], [ 3.954112175000091, 51.84015534100007 ], [ 3.96265709700009, 51.847357489000046 ], [ 3.98218834700009, 51.84829336100006 ], [ 4.015635613000086, 51.843573309000078 ], [ 4.043467644000089, 51.834214585000041 ], [ 4.047618035000085, 51.833685614000046 ], [ 4.055023634000065, 51.834214585000041 ], [ 4.065440300000091, 51.837103583000044 ], [ 4.077647332000083, 51.843573309000078 ], [ 4.07007897200009, 51.852728583000044 ], [ 4.04460696700005, 51.874497789000088 ], [ 4.037852410000085, 51.877915757000039 ], [ 4.032074415000068, 51.882025458000044 ], [ 4.029795769000089, 51.888251044000071 ], [ 4.031993035000085, 51.896063544000071 ], [ 4.036631707000083, 51.901556708000044 ], [ 4.041270379000082, 51.905503648000035 ], [ 4.043467644000089, 51.908677476000037 ], [ 4.040212436000047, 51.924058335000041 ], [ 4.02116946700005, 51.963324286000045 ], [ 4.010020379000082, 51.980129299000055 ], [ 4.015635613000086, 51.987697658000059 ], [ 4.022471550000091, 51.994370835000041 ], [ 4.069021030000044, 51.987941799000055 ], [ 4.107676629000082, 51.991888739000046 ], [ 4.127894608798459, 52.0 ] ] } },
{ "type": "Feature", "properties": { }, "geometry": { "type": "LineString", "coordinates": [ [ 4.036631707000083, 51.68585846600007 ], [ 4.026621941000087, 51.691107489000046 ], [ 4.020274285000085, 51.696478583000044 ], [ 4.01539147200009, 51.701727606000077 ], [ 3.978037957000083, 51.730292059000078 ], [ 3.961761915000068, 51.738104559000078 ], [ 3.939626498000052, 51.741156317000048 ], [ 3.843760613000086, 51.74282461100006 ], [ 3.830577019000089, 51.747300523000035 ], [ 3.81421959700009, 51.748236395000049 ], [ 3.810069207000083, 51.747300523000035 ], [ 3.725840691000087, 51.739732164000088 ], [ 3.689463738000086, 51.725043036000045 ], [ 3.686696811000047, 51.692694403000075 ], [ 3.700043165000068, 51.680609442000048 ], [ 3.720550977000073, 51.676825262000079 ], [ 3.76539147200009, 51.678412177000041 ], [ 3.77125084700009, 51.681830145000049 ], [ 3.795909050000091, 51.700140692000048 ], [ 3.809255405000044, 51.69953034100007 ], [ 3.817637566000087, 51.695257880000042 ], [ 3.82390384200005, 51.689886786000045 ], [ 3.830577019000089, 51.68585846600007 ], [ 3.869802280000044, 51.67609284100007 ], [ 3.885590040000068, 51.668361721000053 ], [ 3.89193769600007, 51.655503648000035 ], [ 3.901540561000047, 51.641994533000059 ], [ 3.923106316000087, 51.632473049000055 ], [ 3.96029707100007, 51.623846747000073 ], [ 3.978037957000083, 51.623277085000041 ], [ 4.054860873000052, 51.632635809000078 ], [ 4.072601759000065, 51.636908270000049 ], [ 4.089040561000047, 51.644029039000088 ], [ 4.09937584700009, 51.654120184000078 ], [ 4.09734134200005, 51.67023346600007 ], [ 4.078379754000082, 51.678615627000056 ], [ 4.036631707000083, 51.68585846600007 ] ] } }
]
}
